{"fetched_at":"2026-07-19T07:05:13.019Z","source":"https://celestrak.org/NORAD/elements/gp.php?NAME=HAWK&FORMAT=JSON","constellation":"hawkeye-360","records":[{"OBJECT_NAME":"HAWK-7B","OBJECT_ID":"2023-054R","EPOCH":"2026-07-18T16:26:35.206944","CLASSIFICATION_TYPE":"U","MEAN_MOTION":15.27651681,"ECCENTRICITY":0.0000951,"INCLINATION":97.268,"RA_OF_ASC_NODE":84.4963,"ARG_OF_PERICENTER":8.481,"MEAN_ANOMALY":351.6445,"EPHEMERIS_TYPE":0,"NORAD_CAT_ID":56193,"ELEMENT_SET_NO":999,"REV_AT_EPOCH":18183,"BSTAR":0.00010609,"MEAN_MOTION_DOT":0.00002795,"MEAN_MOTION_DDOT":0},{"OBJECT_NAME":"HAWK-7C","OBJECT_ID":"2023-054Y","EPOCH":"2026-07-18T16:26:24.069120","CLASSIFICATION_TYPE":"U","MEAN_MOTION":15.27654182,"ECCENTRICITY":0.0000571,"INCLINATION":97.2657,"RA_OF_ASC_NODE":85.2553,"ARG_OF_PERICENTER":335.2444,"MEAN_ANOMALY":24.8768,"EPHEMERIS_TYPE":0,"NORAD_CAT_ID":56200,"ELEMENT_SET_NO":999,"REV_AT_EPOCH":18183,"BSTAR":0.00010486,"MEAN_MOTION_DOT":0.00002762,"MEAN_MOTION_DDOT":0},{"OBJECT_NAME":"HAWK-8A","OBJECT_ID":"2024-066B","EPOCH":"2026-07-18T19:54:44.426304","CLASSIFICATION_TYPE":"U","MEAN_MOTION":14.9929373,"ECCENTRICITY":0.000322,"INCLINATION":45.5967,"RA_OF_ASC_NODE":113.0221,"ARG_OF_PERICENTER":234.3637,"MEAN_ANOMALY":125.6945,"EPHEMERIS_TYPE":0,"NORAD_CAT_ID":59443,"ELEMENT_SET_NO":999,"REV_AT_EPOCH":12458,"BSTAR":0.000083102,"MEAN_MOTION_DOT":0.00000799,"MEAN_MOTION_DDOT":0},{"OBJECT_NAME":"HAWK-8B","OBJECT_ID":"2024-066D","EPOCH":"2026-07-18T03:55:54.848064","CLASSIFICATION_TYPE":"U","MEAN_MOTION":14.99294094,"ECCENTRICITY":0.00033699,"INCLINATION":45.618,"RA_OF_ASC_NODE":118.4517,"ARG_OF_PERICENTER":235.6482,"MEAN_ANOMALY":124.4081,"EPHEMERIS_TYPE":0,"NORAD_CAT_ID":59445,"ELEMENT_SET_NO":999,"REV_AT_EPOCH":12447,"BSTAR":0.000042646744,"MEAN_MOTION_DOT":0.00000297,"MEAN_MOTION_DDOT":0},{"OBJECT_NAME":"HAWK-9A","OBJECT_ID":"2024-066E","EPOCH":"2026-07-18T18:52:35.628672","CLASSIFICATION_TYPE":"U","MEAN_MOTION":14.99221119,"ECCENTRICITY":0.0003071,"INCLINATION":45.6098,"RA_OF_ASC_NODE":113.8956,"ARG_OF_PERICENTER":221.2021,"MEAN_ANOMALY":138.8629,"EPHEMERIS_TYPE":0,"NORAD_CAT_ID":59446,"ELEMENT_SET_NO":999,"REV_AT_EPOCH":12457,"BSTAR":0.000063579,"MEAN_MOTION_DOT":0.00000555,"MEAN_MOTION_DDOT":0},{"OBJECT_NAME":"HAWK-9C","OBJECT_ID":"2024-066G","EPOCH":"2026-07-18T18:52:58.778688","CLASSIFICATION_TYPE":"U","MEAN_MOTION":14.99219721,"ECCENTRICITY":0.000295,"INCLINATION":45.6068,"RA_OF_ASC_NODE":112.9922,"ARG_OF_PERICENTER":206.7474,"MEAN_ANOMALY":153.3256,"EPHEMERIS_TYPE":0,"NORAD_CAT_ID":59448,"ELEMENT_SET_NO":999,"REV_AT_EPOCH":12457,"BSTAR":0.000060287,"MEAN_MOTION_DOT":0.00000514,"MEAN_MOTION_DDOT":0},{"OBJECT_NAME":"HAWK-8C","OBJECT_ID":"2024-066H","EPOCH":"2026-07-18T18:18:41.802048","CLASSIFICATION_TYPE":"U","MEAN_MOTION":14.99294788,"ECCENTRICITY":0.0002996,"INCLINATION":45.6077,"RA_OF_ASC_NODE":114.3683,"ARG_OF_PERICENTER":243.1587,"MEAN_ANOMALY":116.8988,"EPHEMERIS_TYPE":0,"NORAD_CAT_ID":59449,"ELEMENT_SET_NO":999,"REV_AT_EPOCH":12456,"BSTAR":0.00005751,"MEAN_MOTION_DOT":0.00000481,"MEAN_MOTION_DDOT":0},{"OBJECT_NAME":"HAWK-9B","OBJECT_ID":"2024-066J","EPOCH":"2026-07-18T20:28:59.867616","CLASSIFICATION_TYPE":"U","MEAN_MOTION":14.99216636,"ECCENTRICITY":0.000324,"INCLINATION":45.6124,"RA_OF_ASC_NODE":114.4867,"ARG_OF_PERICENTER":203.2435,"MEAN_ANOMALY":156.83,"EPHEMERIS_TYPE":0,"NORAD_CAT_ID":59450,"ELEMENT_SET_NO":999,"REV_AT_EPOCH":12458,"BSTAR":0.000068972,"MEAN_MOTION_DOT":0.00000622,"MEAN_MOTION_DDOT":0},{"OBJECT_NAME":"HAWK-10A","OBJECT_ID":"2024-149CA","EPOCH":"2026-07-18T17:28:37.670592","CLASSIFICATION_TYPE":"U","MEAN_MOTION":14.96594514,"ECCENTRICITY":0.0002747,"INCLINATION":97.6883,"RA_OF_ASC_NODE":275.0977,"ARG_OF_PERICENTER":348.6769,"MEAN_ANOMALY":11.439,"EPHEMERIS_TYPE":0,"NORAD_CAT_ID":60540,"ELEMENT_SET_NO":999,"REV_AT_EPOCH":10470,"BSTAR":0.000025212,"MEAN_MOTION_DOT":0.0000023,"MEAN_MOTION_DDOT":0},{"OBJECT_NAME":"HAWK-10B","OBJECT_ID":"2024-149CF","EPOCH":"2026-07-18T19:04:42.746880","CLASSIFICATION_TYPE":"U","MEAN_MOTION":14.96593783,"ECCENTRICITY":0.0005033,"INCLINATION":97.6801,"RA_OF_ASC_NODE":274.4863,"ARG_OF_PERICENTER":1.5215,"MEAN_ANOMALY":358.6021,"EPHEMERIS_TYPE":0,"NORAD_CAT_ID":60545,"ELEMENT_SET_NO":999,"REV_AT_EPOCH":10471,"BSTAR":0.000033939,"MEAN_MOTION_DOT":0.00000329,"MEAN_MOTION_DDOT":0},{"OBJECT_NAME":"HAWK-10C","OBJECT_ID":"2024-149DM","EPOCH":"2026-07-18T19:05:12.318144","CLASSIFICATION_TYPE":"U","MEAN_MOTION":14.96592516,"ECCENTRICITY":0.0002331,"INCLINATION":97.6719,"RA_OF_ASC_NODE":273.7931,"ARG_OF_PERICENTER":332.4482,"MEAN_ANOMALY":27.6616,"EPHEMERIS_TYPE":0,"NORAD_CAT_ID":60575,"ELEMENT_SET_NO":999,"REV_AT_EPOCH":10471,"BSTAR":0.000038659,"MEAN_MOTION_DOT":0.00000383,"MEAN_MOTION_DDOT":0},{"OBJECT_NAME":"HAWK-11B","OBJECT_ID":"2024-247C","EPOCH":"2026-07-18T04:08:17.682432","CLASSIFICATION_TYPE":"U","MEAN_MOTION":15.30693726,"ECCENTRICITY":0.00025206,"INCLINATION":45.0157,"RA_OF_ASC_NODE":119.8549,"ARG_OF_PERICENTER":41.6008,"MEAN_ANOMALY":318.5068,"EPHEMERIS_TYPE":0,"NORAD_CAT_ID":62379,"ELEMENT_SET_NO":999,"REV_AT_EPOCH":8775,"BSTAR":0.00013746967,"MEAN_MOTION_DOT":0.00003852,"MEAN_MOTION_DDOT":0},{"OBJECT_NAME":"HAWK-11C","OBJECT_ID":"2024-247E","EPOCH":"2026-07-18T19:47:24.707328","CLASSIFICATION_TYPE":"U","MEAN_MOTION":15.30695909,"ECCENTRICITY":0.0003337,"INCLINATION":45.0044,"RA_OF_ASC_NODE":115.6052,"ARG_OF_PERICENTER":31.6293,"MEAN_ANOMALY":328.4791,"EPHEMERIS_TYPE":0,"NORAD_CAT_ID":62381,"ELEMENT_SET_NO":999,"REV_AT_EPOCH":8785,"BSTAR":0.00014051,"MEAN_MOTION_DOT":0.00003945,"MEAN_MOTION_DDOT":0},{"OBJECT_NAME":"HAWK-11A","OBJECT_ID":"2024-247F","EPOCH":"2026-07-18T04:07:47.260992","CLASSIFICATION_TYPE":"U","MEAN_MOTION":15.30686521,"ECCENTRICITY":0.00029123,"INCLINATION":44.9938,"RA_OF_ASC_NODE":118.5099,"ARG_OF_PERICENTER":26.358,"MEAN_ANOMALY":333.7452,"EPHEMERIS_TYPE":0,"NORAD_CAT_ID":62382,"ELEMENT_SET_NO":999,"REV_AT_EPOCH":8775,"BSTAR":0.00014165826,"MEAN_MOTION_DOT":0.00003978,"MEAN_MOTION_DDOT":0},{"OBJECT_NAME":"HAWK-12C","OBJECT_ID":"2025-138A","EPOCH":"2026-07-18T11:29:23.310528","CLASSIFICATION_TYPE":"U","MEAN_MOTION":15.18419818,"ECCENTRICITY":0.0015029,"INCLINATION":97.4354,"RA_OF_ASC_NODE":201.396,"ARG_OF_PERICENTER":40.7364,"MEAN_ANOMALY":319.4991,"EPHEMERIS_TYPE":0,"NORAD_CAT_ID":64621,"ELEMENT_SET_NO":999,"REV_AT_EPOCH":5861,"BSTAR":0.00010372613,"MEAN_MOTION_DOT":0.00002072,"MEAN_MOTION_DDOT":0},{"OBJECT_NAME":"HAWK-12B","OBJECT_ID":"2025-138B","EPOCH":"2026-07-18T17:49:13.359072","CLASSIFICATION_TYPE":"U","MEAN_MOTION":15.18420365,"ECCENTRICITY":0.0013841,"INCLINATION":97.4477,"RA_OF_ASC_NODE":202.3546,"ARG_OF_PERICENTER":36.0053,"MEAN_ANOMALY":324.2111,"EPHEMERIS_TYPE":0,"NORAD_CAT_ID":64622,"ELEMENT_SET_NO":999,"REV_AT_EPOCH":5865,"BSTAR":0.00010267,"MEAN_MOTION_DOT":0.00002049,"MEAN_MOTION_DDOT":0}]}
