HAWK-7B                 
1 56193U 23054R   26199.68512971  .00002795  00000+0  10609-3 0  9995
2 56193  97.2680  84.4963 0000951   8.4810 351.6445 15.27651681181839
HAWK-7C                 
1 56200U 23054Y   26199.68500080  .00002762  00000+0  10486-3 0  9999
2 56200  97.2657  85.2553 0000571 335.2444  24.8768 15.27654182181834
HAWK-8A                 
1 59443U 24066B   26199.82968086  .00000799  00000+0  83102-4 0  9999
2 59443  45.5967 113.0221 0003220 234.3637 125.6945 14.99293730124587
HAWK-8B                 
1 59445U 24066D   26199.16382926  .00000297  00000+0  42647-4 0  9993
2 59445  45.6180 118.4517 0003369 235.6482 124.4081 14.99294094124470
HAWK-9A                 
1 59446U 24066E   26199.78652348  .00000555  00000+0  63579-4 0  9994
2 59446  45.6098 113.8956 0003071 221.2021 138.8629 14.99221119124571
HAWK-9C                 
1 59448U 24066G   26199.78679142  .00000514  00000+0  60287-4 0  9995
2 59448  45.6068 112.9922 0002950 206.7474 153.3256 14.99219721124572
HAWK-8C                 
1 59449U 24066H   26199.76298382  .00000481  00000+0  57510-4 0  9995
2 59449  45.6077 114.3683 0002996 243.1587 116.8988 14.99294788124564
HAWK-9B                 
1 59450U 24066J   26199.85347069  .00000622  00000+0  68972-4 0  9995
2 59450  45.6124 114.4867 0003240 203.2435 156.8300 14.99216636124586
HAWK-10A                
1 60540U 24149CA  26199.72821378  .00000230  00000+0  25212-4 0  9990
2 60540  97.6883 275.0977 0002747 348.6769  11.4390 14.96594514104706
HAWK-10B                
1 60545U 24149CF  26199.79493920  .00000329  00000+0  33939-4 0  9994
2 60545  97.6801 274.4863 0005033   1.5215 358.6021 14.96593783104715
HAWK-10C                
1 60575U 24149DM  26199.79528146  .00000383  00000+0  38659-4 0  9990
2 60575  97.6719 273.7931 0002331 332.4482  27.6616 14.96592516104710
HAWK-11B                
1 62379U 24247C   26199.17242688  .00003852  00000+0  13747-3 0  9993
2 62379  45.0157 119.8549 0002520  41.6008 318.5068 15.30693726 87756
HAWK-11C                
1 62381U 24247E   26199.82459152  .00003945  00000+0  14051-3 0  9996
2 62381  45.0044 115.6052 0003337  31.6293 328.4791 15.30695909 87858
HAWK-11A                
1 62382U 24247F   26199.17207478  .00003978  00000+0  14166-3 0  9990
2 62382  44.9938 118.5099 0002912  26.3580 333.7452 15.30686521 87752
HAWK-12C                
1 64621U 25138A   26199.47874202  .00002072  00000+0  10373-3 0  9996
2 64621  97.4354 201.3960 0015029  40.7364 319.4991 15.18419818 58617
HAWK-12B                
1 64622U 25138B   26199.74251573  .00002049  00000+0  10267-3 0  9993
2 64622  97.4477 202.3546 0013841  36.0053 324.2111 15.18420365 58659
